[{"OBJECT_NAME":"STARLINK-2250","OBJECT_ID":"2021-041AS","EPOCH":"2026-03-09T11:35:17.849472","MEAN_MOTION":15.30204716,"ECCENTRICITY":0.00013199,"INCLINATION":53.1594,"RA_OF_ASC_NODE":140.8837,"ARG_OF_PERICENTER":54.7076,"MEAN_ANOMALY":305.4048,"EPHEMERIS_TYPE":0,"CLASSIFICATION_TYPE":"U","NORAD_CAT_ID":48593,"ELEMENT_SET_NO":999,"REV_AT_EPOCH":26505,"BSTAR":0.00012311865,"MEAN_MOTION_DOT":3.289e-5,"MEAN_MOTION_DDOT":0},{"OBJECT_NAME":"CZ-4B DEB","OBJECT_ID":"2006-015E","EPOCH":"2026-03-09T20:34:53.082912","MEAN_MOTION":15.19885806,"ECCENTRICITY":0.00461993,"INCLINATION":98.0565,"RA_OF_ASC_NODE":201.7753,"ARG_OF_PERICENTER":62.4887,"MEAN_ANOMALY":298.1031,"EPHEMERIS_TYPE":0,"CLASSIFICATION_TYPE":"U","NORAD_CAT_ID":29538,"ELEMENT_SET_NO":999,"REV_AT_EPOCH":5389,"BSTAR":0.0022587151,"MEAN_MOTION_DOT":0.00050103,"MEAN_MOTION_DDOT":0}]
